METOP-B                 
1 38771U 12049A   26064.22157406  .00000172  00000+0  98496-4 0  9996
2 38771  98.6651 117.7299 0001200 290.4699  69.6349 14.21443047698494
SARAL                   
1 39086U 13009A   26064.27153379  .00000183  00000+0  83295-4 0  9996
2 39086  98.5552 252.1429 0001225 194.8378 165.2771 14.32826775680724
METOP-C                 
1 43689U 18087A   26064.24611948  .00000167  00000+0  96028-4 0  9999
2 43689  98.6774 125.6944 0002181 106.0979 254.0438 14.21495340380064
OTB-3-GAZELLE           
1 54023U 22127A   26064.23248613  .00000115  00000+0  47478-4 0  9995
2 54023  98.3905  57.5461 0013915 138.3011 221.9242 14.42633176179370
EOS-6 (OCEANSAT-3)      
1 54361U 22158A   26064.30086479  .00000532  00000+0  15813-3 0  9992
2 54361  98.3489 163.9097 0000161  41.1374 318.9831 14.47001064172814
KINEIS-1B               
1 60079U 24114A   26064.30964278  .00001739  00000+0  23464-3 0  9992
2 60079  97.9927  88.9610 0003843  81.9988 278.1660 14.80403824 92038
KINEIS-1C               
1 60081U 24114C   26064.27575698  .00001570  00000+0  21254-3 0  9993
2 60081  97.9948  88.7517 0002072 122.9877 237.1534 14.80394894 92002
KINEIS-1D               
1 60082U 24114D   26064.26767171  .00001138  00000+0  17219-3 0  9998
2 60082  97.9971  85.5075 0002269 131.0865 229.0541 14.76104384 91790
KINEIS-1E               
1 60083U 24114E   26064.29270911  .00001494  00000+0  20250-3 0  9997
2 60083  97.9933  88.8501 0002491  92.2289 267.9208 14.80412752 92017
KINEIS-1A               
1 60084U 24114F   26064.32653225  .00001334  00000+0  18147-3 0  9990
2 60084  97.9940  89.0062 0004790 102.2425 257.9324 14.80427900 92029
KINEIS-3C               
1 61220U 24172A   26064.22747118  .00003303  00000+0  53039-3 0  9998
2 61220  98.0301 155.2831 0003505 109.4300 250.7287 14.72290050 77778
KINEIS-3D               
1 61221U 24172B   26064.22083047  .00003322  00000+0  53336-3 0  9994
2 61221  98.0302 155.2877 0002555 114.4028 245.7446 14.72293921 78050
KINEIS-3E               
1 61222U 24172C   26064.27172458  .00003194  00000+0  51334-3 0  9998
2 61222  98.0296 155.3333 0001626 108.8185 251.3199 14.72282585 78063
KINEIS-3A               
1 61223U 24172D   26064.25473313  .00003211  00000+0  51574-3 0  9997
2 61223  98.0290 155.4053 0003102  79.0630 281.0927 14.72310314 77489
KINEIS-3B               
1 61224U 24172E   26064.23771830  .00003214  00000+0  51673-3 0  9994
2 61224  98.0286 155.4217 0003605  71.6080 288.5519 14.72264064 78055
KINEIS-5C               
1 62081U 24219A   26064.28244306  .00001376  00000+0  22526-3 0  9998
2 62081  97.9724 225.8240 0001719  97.5275 262.6127 14.72352325 68467
KINEIS-5D               
1 62082U 24219B   26064.24844272  .00001907  00000+0  30918-3 0  9997
2 62082  97.9646 225.7734 0001114  77.2637 282.8695 14.72330430 68461
