[{"OBJECT_NAME":"METOP-B","OBJECT_ID":"2012-049A","EPOCH":"2026-03-05T05:19:03.998784","MEAN_MOTION":14.21443047,"ECCENTRICITY":0.00012009,"INCLINATION":98.6651,"RA_OF_ASC_NODE":117.7299,"ARG_OF_PERICENTER":290.4699,"MEAN_ANOMALY":69.6349,"EPHEMERIS_TYPE":0,"CLASSIFICATION_TYPE":"U","NORAD_CAT_ID":38771,"ELEMENT_SET_NO":999,"REV_AT_EPOCH":69849,"BSTAR":9.8496098e-5,"MEAN_MOTION_DOT":1.72e-6,"MEAN_MOTION_DDOT":0},{"OBJECT_NAME":"SARAL","OBJECT_ID":"2013-009A","EPOCH":"2026-03-05T06:31:00.519456","MEAN_MOTION":14.32826775,"ECCENTRICITY":0.00012251,"INCLINATION":98.5552,"RA_OF_ASC_NODE":252.1429,"ARG_OF_PERICENTER":194.8378,"MEAN_ANOMALY":165.2771,"EPHEMERIS_TYPE":0,"CLASSIFICATION_TYPE":"U","NORAD_CAT_ID":39086,"ELEMENT_SET_NO":999,"REV_AT_EPOCH":68072,"BSTAR":8.3294767e-5,"MEAN_MOTION_DOT":1.83e-6,"MEAN_MOTION_DDOT":0},{"OBJECT_NAME":"METOP-C","OBJECT_ID":"2018-087A","EPOCH":"2026-03-05T05:54:24.723072","MEAN_MOTION":14.2149534,"ECCENTRICITY":0.00021811,"INCLINATION":98.6774,"RA_OF_ASC_NODE":125.6944,"ARG_OF_PERICENTER":106.0979,"MEAN_ANOMALY":254.0438,"EPHEMERIS_TYPE":0,"CLASSIFICATION_TYPE":"U","NORAD_CAT_ID":43689,"ELEMENT_SET_NO":999,"REV_AT_EPOCH":38006,"BSTAR":9.602811e-5,"MEAN_MOTION_DOT":1.67e-6,"MEAN_MOTION_DDOT":0},{"OBJECT_NAME":"OTB-3-GAZELLE","OBJECT_ID":"2022-127A","EPOCH":"2026-03-05T05:34:46.801632","MEAN_MOTION":14.42633176,"ECCENTRICITY":0.00139158,"INCLINATION":98.3905,"RA_OF_ASC_NODE":57.5461,"ARG_OF_PERICENTER":138.3011,"MEAN_ANOMALY":221.9242,"EPHEMERIS_TYPE":0,"CLASSIFICATION_TYPE":"U","NORAD_CAT_ID":54023,"ELEMENT_SET_NO":999,"REV_AT_EPOCH":17937,"BSTAR":4.7477763e-5,"MEAN_MOTION_DOT":1.15e-6,"MEAN_MOTION_DDOT":0},{"OBJECT_NAME":"EOS-6 (OCEANSAT-3)","OBJECT_ID":"2022-158A","EPOCH":"2026-03-05T07:13:14.717856","MEAN_MOTION":14.47001064,"ECCENTRICITY":1.614e-5,"INCLINATION":98.3489,"RA_OF_ASC_NODE":163.9097,"ARG_OF_PERICENTER":41.1374,"MEAN_ANOMALY":318.9831,"EPHEMERIS_TYPE":0,"CLASSIFICATION_TYPE":"U","NORAD_CAT_ID":54361,"ELEMENT_SET_NO":999,"REV_AT_EPOCH":17281,"BSTAR":0.00015813408,"MEAN_MOTION_DOT":5.32e-6,"MEAN_MOTION_DDOT":0},{"OBJECT_NAME":"KINEIS-1B","OBJECT_ID":"2024-114A","EPOCH":"2026-03-05T07:25:53.136192","MEAN_MOTION":14.80403824,"ECCENTRICITY":0.00038435,"INCLINATION":97.9927,"RA_OF_ASC_NODE":88.961,"ARG_OF_PERICENTER":81.9988,"MEAN_ANOMALY":278.166,"EPHEMERIS_TYPE":0,"CLASSIFICATION_TYPE":"U","NORAD_CAT_ID":60079,"ELEMENT_SET_NO":999,"REV_AT_EPOCH":9203,"BSTAR":0.00023463645,"MEAN_MOTION_DOT":1.739e-5,"MEAN_MOTION_DDOT":0},{"OBJECT_NAME":"KINEIS-1C","OBJECT_ID":"2024-114C","EPOCH":"2026-03-05T06:37:05.403072","MEAN_MOTION":14.80394894,"ECCENTRICITY":0.00020727,"INCLINATION":97.9948,"RA_OF_ASC_NODE":88.7517,"ARG_OF_PERICENTER":122.9877,"MEAN_ANOMALY":237.1534,"EPHEMERIS_TYPE":0,"CLASSIFICATION_TYPE":"U","NORAD_CAT_ID":60081,"ELEMENT_SET_NO":999,"REV_AT_EPOCH":9200,"BSTAR":0.00021254336,"MEAN_MOTION_DOT":1.57e-5,"MEAN_MOTION_DDOT":0},{"OBJECT_NAME":"KINEIS-1D","OBJECT_ID":"2024-114D","EPOCH":"2026-03-05T06:25:26.835744","MEAN_MOTION":14.76104384,"ECCENTRICITY":0.00022695,"INCLINATION":97.9971,"RA_OF_ASC_NODE":85.5075,"ARG_OF_PERICENTER":131.0865,"MEAN_ANOMALY":229.0541,"EPHEMERIS_TYPE":0,"CLASSIFICATION_TYPE":"U","NORAD_CAT_ID":60082,"ELEMENT_SET_NO":999,"REV_AT_EPOCH":9179,"BSTAR":0.00017219169,"MEAN_MOTION_DOT":1.138e-5,"MEAN_MOTION_DDOT":0},{"OBJECT_NAME":"KINEIS-1E","OBJECT_ID":"2024-114E","EPOCH":"2026-03-05T07:01:30.067104","MEAN_MOTION":14.80412752,"ECCENTRICITY":0.00024912,"INCLINATION":97.9933,"RA_OF_ASC_NODE":88.8501,"ARG_OF_PERICENTER":92.2289,"MEAN_ANOMALY":267.9208,"EPHEMERIS_TYPE":0,"CLASSIFICATION_TYPE":"U","NORAD_CAT_ID":60083,"ELEMENT_SET_NO":999,"REV_AT_EPOCH":9201,"BSTAR":0.00020250335,"MEAN_MOTION_DOT":1.494e-5,"MEAN_MOTION_DDOT":0},{"OBJECT_NAME":"KINEIS-1A","OBJECT_ID":"2024-114F","EPOCH":"2026-03-05T07:50:12.386400","MEAN_MOTION":14.804279,"ECCENTRICITY":0.00047905,"INCLINATION":97.994,"RA_OF_ASC_NODE":89.0062,"ARG_OF_PERICENTER":102.2425,"MEAN_ANOMALY":257.9324,"EPHEMERIS_TYPE":0,"CLASSIFICATION_TYPE":"U","NORAD_CAT_ID":60084,"ELEMENT_SET_NO":999,"REV_AT_EPOCH":9202,"BSTAR":0.00018146627,"MEAN_MOTION_DOT":1.334e-5,"MEAN_MOTION_DDOT":0},{"OBJECT_NAME":"KINEIS-3C","OBJECT_ID":"2024-172A","EPOCH":"2026-03-05T05:27:33.509952","MEAN_MOTION":14.7229005,"ECCENTRICITY":0.00035053,"INCLINATION":98.0301,"RA_OF_ASC_NODE":155.2831,"ARG_OF_PERICENTER":109.43,"MEAN_ANOMALY":250.7287,"EPHEMERIS_TYPE":0,"CLASSIFICATION_TYPE":"U","NORAD_CAT_ID":61220,"ELEMENT_SET_NO":999,"REV_AT_EPOCH":7777,"BSTAR":0.00053038869,"MEAN_MOTION_DOT":3.303e-5,"MEAN_MOTION_DDOT":0},{"OBJECT_NAME":"KINEIS-3D","OBJECT_ID":"2024-172B","EPOCH":"2026-03-05T05:17:59.752608","MEAN_MOTION":14.72293921,"ECCENTRICITY":0.00025554,"INCLINATION":98.0302,"RA_OF_ASC_NODE":155.2877,"ARG_OF_PERICENTER":114.4028,"MEAN_ANOMALY":245.7446,"EPHEMERIS_TYPE":0,"CLASSIFICATION_TYPE":"U","NORAD_CAT_ID":61221,"ELEMENT_SET_NO":999,"REV_AT_EPOCH":7805,"BSTAR":0.00053335842,"MEAN_MOTION_DOT":3.322e-5,"MEAN_MOTION_DDOT":0},{"OBJECT_NAME":"KINEIS-3E","OBJECT_ID":"2024-172C","EPOCH":"2026-03-05T06:31:17.003712","MEAN_MOTION":14.72282585,"ECCENTRICITY":0.00016262,"INCLINATION":98.0296,"RA_OF_ASC_NODE":155.3333,"ARG_OF_PERICENTER":108.8185,"MEAN_ANOMALY":251.3199,"EPHEMERIS_TYPE":0,"CLASSIFICATION_TYPE":"U","NORAD_CAT_ID":61222,"ELEMENT_SET_NO":999,"REV_AT_EPOCH":7806,"BSTAR":0.00051333546,"MEAN_MOTION_DOT":3.194e-5,"MEAN_MOTION_DDOT":0},{"OBJECT_NAME":"KINEIS-3A","OBJECT_ID":"2024-172D","EPOCH":"2026-03-05T06:06:48.942432","MEAN_MOTION":14.72310314,"ECCENTRICITY":0.00031025,"INCLINATION":98.029,"RA_OF_ASC_NODE":155.4053,"ARG_OF_PERICENTER":79.063,"MEAN_ANOMALY":281.0927,"EPHEMERIS_TYPE":0,"CLASSIFICATION_TYPE":"U","NORAD_CAT_ID":61223,"ELEMENT_SET_NO":999,"REV_AT_EPOCH":7748,"BSTAR":0.00051573908,"MEAN_MOTION_DOT":3.211e-5,"MEAN_MOTION_DDOT":0},{"OBJECT_NAME":"KINEIS-3B","OBJECT_ID":"2024-172E","EPOCH":"2026-03-05T05:42:18.861120","MEAN_MOTION":14.72264064,"ECCENTRICITY":0.00036058,"INCLINATION":98.0286,"RA_OF_ASC_NODE":155.4217,"ARG_OF_PERICENTER":71.608,"MEAN_ANOMALY":288.5519,"EPHEMERIS_TYPE":0,"CLASSIFICATION_TYPE":"U","NORAD_CAT_ID":61224,"ELEMENT_SET_NO":999,"REV_AT_EPOCH":7805,"BSTAR":0.00051672967,"MEAN_MOTION_DOT":3.214e-5,"MEAN_MOTION_DDOT":0},{"OBJECT_NAME":"KINEIS-5C","OBJECT_ID":"2024-219A","EPOCH":"2026-03-05T06:46:43.080384","MEAN_MOTION":14.72352325,"ECCENTRICITY":0.00017195,"INCLINATION":97.9724,"RA_OF_ASC_NODE":225.824,"ARG_OF_PERICENTER":97.5275,"MEAN_ANOMALY":262.6127,"EPHEMERIS_TYPE":0,"CLASSIFICATION_TYPE":"U","NORAD_CAT_ID":62081,"ELEMENT_SET_NO":999,"REV_AT_EPOCH":6846,"BSTAR":0.00022525538,"MEAN_MOTION_DOT":1.376e-5,"MEAN_MOTION_DDOT":0},{"OBJECT_NAME":"KINEIS-5D","OBJECT_ID":"2024-219B","EPOCH":"2026-03-05T05:57:45.451008","MEAN_MOTION":14.7233043,"ECCENTRICITY":0.00011141,"INCLINATION":97.9646,"RA_OF_ASC_NODE":225.7734,"ARG_OF_PERICENTER":77.2637,"MEAN_ANOMALY":282.8695,"EPHEMERIS_TYPE":0,"CLASSIFICATION_TYPE":"U","NORAD_CAT_ID":62082,"ELEMENT_SET_NO":999,"REV_AT_EPOCH":6846,"BSTAR":0.00030918137,"MEAN_MOTION_DOT":1.907e-5,"MEAN_MOTION_DDOT":0}]
